[ {"name": "STARLINK-34588", "line1": "1 64729U 25144F   26145.12993237  .00012096  00000+0  41977-3 0  9996", "line2": "2 64729  53.1583 186.0986 0001181  84.5712 275.5423 15.30205421 51413"}, {"name": "STARLINK-34606", "line1": "1 64730U 25144G   26144.45567851  .00006043  00000+0  21588-3 0  9993", "line2": "2 64730  53.1592 189.0003 0001080  67.7299 292.3817 15.30217201 51311"}, {"name": "STARLINK-34552", "line1": "1 64731U 25144H   26144.83912478  .00006618  00000+0  23527-3 0  9998", "line2": "2 64731  53.1596 187.1200 0001460  86.8329 273.2838 15.30213187 51378"}, {"name": "STARLINK-34596", "line1": "1 64732U 25144J   26145.12465681  .00017929  00000+0  61589-3 0  9998", "line2": "2 64732  53.1582 186.0635 0001276  86.5556 273.5591 15.30205237 51419"}, {"name": "STARLINK-34556", "line1": "1 64733U 25144K   26144.82190571  .00014546  00000+0  44082-3 0  9999", "line2": "2 64733  53.1588 184.1813 0001186  86.6337 273.4801 15.34397776 51418"}, {"name": "STARLINK-34591", "line1": "1 64734U 25144L   26144.84334672  .00009036  00000+0  31676-3 0  9997", "line2": "2 64734  53.1580 187.1496 0001231  84.4573 275.6568 15.30207161 51351"}, {"name": "STARLINK-34587", "line1": "1 64735U 25144M   26145.13415409  .00011849  00000+0  41145-3 0  9996", "line2": "2 64735  53.1578 186.1275 0001162  81.9688 278.1445 15.30205822 51360"}, {"name": "STARLINK-34130", "line1": "1 64736U 25144N   26144.52943604  .00022012  00000+0  75308-3 0  9994", "line2": "2 64736  53.1585 188.7451 0001037  71.9562 288.1552 15.30201588 51325"}, {"name": "STARLINK-34619", "line1": "1 64737U 25144P   26145.14787059  .00010479  00000+0  36537-3 0  9999", "line2": "2 64737  53.1571 186.2063 0001150  99.4761 260.6370 15.30204835 51416"}, {"name": "STARLINK-34597", "line1": "1 64738U 25144Q   26145.09194396  .00011165  00000+0  38822-3 0  9992", "line2": "2 64738  53.1580 185.8596 0001427  53.9791 306.1342 15.30225661 51390"}, {"name": "STARLINK-34471", "line1": "1 64739U 25144R   26145.13098666  .00015992  00000+0  55081-3 0  9999", "line2": "2 64739  53.1582 186.1003 0001217  83.7337 276.3802 15.30206098 51352"}, {"name": "STARLINK-34208", "line1": "1 64740U 25144S   26145.08876005  .00013886  00000+0  42125-3 0  9991", "line2": "2 64740  53.1589 183.0002 0001179  85.4745 274.6392 15.34406624 51452"}, {"name": "STARLINK-34205", "line1": "1 64741U 25144T   26144.53365608  .00007379  00000+0  26100-3 0  9998", "line2": "2 64741  53.1585 188.7726 0000983  77.1968 282.9143 15.30200693 51327"}, {"name": "STARLINK-34607", "line1": "1 64742U 25144U   26145.13731883  .00011579  00000+0  40238-3 0  9993", "line2": "2 64742  53.1573 186.1401 0001263  87.1445 272.9700 15.30206099 51391"}, {"name": "STARLINK-34236", "line1": "1 64743U 25144V   26145.12043536  .00015424  00000+0  53173-3 0  9999", "line2": "2 64743  53.1587 186.0324 0001213  88.9172 271.1968 15.30205100 51413"}, {"name": "STARLINK-34185", "line1": "1 64744U 25144W   26144.83596158  .00014442  00000+0  49889-3 0  9998", "line2": "2 64744  53.1585 187.1015 0000849  88.0778 272.0320 15.30192519 51374"}, {"name": "STARLINK-34581", "line1": "1 64745U 25144X   26145.14576000  .00010508  00000+0  36635-3 0  9992", "line2": "2 64745  53.1579 186.1905 0001201  93.4017 266.7121 15.30205601 51415"}, {"name": "STARLINK-34592", "line1": "1 64746U 25144Y   26145.07461720  .00015889  00000+0  54726-3 0  9995", "line2": "2 64746  53.1597 173.6780 0001276  84.3112 275.8035 15.30209854 51582"}, {"name": "STARLINK-34589", "line1": "1 64747U 25144Z   26144.49416086  .00017196  00000+0  59132-3 0  9995", "line2": "2 64747  53.1589 176.3904 0001076  83.3342 276.7781 15.30203524 51490"}, {"name": "STARLINK-34536", "line1": "1 64748U 25144AA  26145.12676392  .00019006  00000+0  65192-3 0  9990", "line2": "2 64748  53.1579 186.0679 0001077  78.6970 281.4151 15.30212538 51413"}, {"name": "STARLINK-34595", "line1": "1 64749U 25144AB  26145.12782012  .00010375  00000+0  36185-3 0  9998", "line2": "2 64749  53.1574 186.0719 0000991  84.6362 275.4752 15.30206053 51415"}, {"name": "STARLINK-34531", "line1": "1 64750U 25144AC  26144.84967800  .00012970  00000+0  44927-3 0  9994", "line2": "2 64750  53.1586 187.1856 0001226  85.5935 274.5206 15.30200596 51377"}, {"name": "STARLINK-33965", "line1": "1 64755U 25147A   26144.97999436  .00022655  00000+0  68052-3 0  9992", "line2": "2 64755  53.1588 247.5813 0000903  85.0210 275.0896 15.34357929 50489"}, {"name": "STARLINK-34371", "line1": "1 64756U 25147B   26144.97957727  .00015087  00000+0  49664-3 0  9999", "line2": "2 64756  53.1569 248.2830 0001089  69.3450 290.7668 15.31719158 50386"}, {"name": "STARLINK-34401", "line1": "1 64757U 25147C   26145.00312147  .00010405  00000+0  31873-3 0  9998", "line2": "2 64757  53.1604 247.7245 0000471 236.0429 124.0528 15.34390971 50378"}, {"name": "STARLINK-34593", "line1": "1 64758U 25147D   26144.77404693  .00020597  00000+0  61878-3 0  9991", "line2": "2 64758  53.1586 248.4237 0001025  72.5172 287.5943 15.34413184 50414"}, {"name": "STARLINK-34598", "line1": "1 64759U 25147E   26144.76530257  .00024932  00000+0  76688-3 0  9999", "line2": "2 64759  53.1589 249.0743 0001172  76.4519 283.6614 15.33548263 50359"}, {"name": "STARLINK-34235", "line1": "1 64760U 25147F   26144.76782396  .00011581  00000+0  35337-3 0  9996", "line2": "2 64760  53.1589 249.0955 0001138  79.1339 280.9791 15.34397993 50447"}, {"name": "STARLINK-34635", "line1": "1 64761U 25147G   26145.01784455  .00025578  00000+0  76538-3 0  9993", "line2": "2 64761  53.1596 247.8116 0001091  73.0678 287.0444 15.34407631 50442"}, {"name": "STARLINK-34638", "line1": "1 64762U 25147H   26144.98208145  .00034483  00000+0  10270-2 0  9991", "line2": "2 64762  53.1585 247.5910 0001293  86.9584 273.1567 15.34401100 50440"}, {"name": "STARLINK-34534", "line1": "1 64763U 25147J   26145.00732904  .00018243  00000+0  54971-3 0  9994", "line2": "2 64763  53.1606 247.7456 0001295  85.1070 275.0081 15.34402771 50442"}, {"name": "STARLINK-34261", "line1": "1 64764U 25147K   26144.71522198  .00016734  00000+0  50542-3 0  9997", "line2": "2 64764  53.1574 248.7666 0000809  85.2917 274.8178 15.34392507 50441"}, {"name": "STARLINK-34566", "line1": "1 64765U 25147L   26144.99259778  .00018042  00000+0  54379-3 0  9995", "line2": "2 64765  53.1601 247.6476 0001069  66.9478 293.1637 15.34402148 50444"}, {"name": "STARLINK-34645", "line1": "1 64766U 25147M   26145.02157801  .00019174  00000+0  65773-3 0  9992", "line2": "2 64766  53.1580 248.5393 0001211  93.1656 266.9483 15.30205423 50437"}, {"name": "STARLINK-34639", "line1": "1 64767U 25147N   26144.99891001  .00023318  00000+0  69898-3 0  9992", "line2": "2 64767  53.1592 247.6896 0001058  87.2817 272.8307 15.34405684 50392"}, {"name": "STARLINK-34609", "line1": "1 64768U 25147P   26144.98789654  .00016660  00000+0  57314-3 0  9994", "line2": "2 64768  53.1581 238.3950 0001321  76.4818 283.6329 15.30212535 50574"}, {"name": "STARLINK-34246", "line1": "1 64769U 25147Q   26144.72574228  .00012796  00000+0  38913-3 0  9996", "line2": "2 64769  53.1601 248.8336 0001094  82.4052 277.7075 15.34406518 50400"}, {"name": "STARLINK-34618", "line1": "1 64770U 25147R   26144.70680604  .00030199  00000+0  90179-3 0  9991", "line2": "2 64770  53.1589 248.7157 0001024  79.5462 280.5656 15.34383588 50332"}, {"name": "STARLINK-34541", "line1": "1 64771U 25147S   26144.98418157  .00019608  00000+0  58996-3 0  9997", "line2": "2 64771  53.1575 247.6000 0001072  76.6004 283.5118 15.34398313 50378"}, {"name": "STARLINK-34652", "line1": "1 64772U 25147T   26144.99049366  .00021616  00000+0  64901-3 0  9996", "line2": "2 64772  53.1566 247.6365 0001207  81.1562 278.9577 15.34401171 50445"}, {"name": "STARLINK-34612", "line1": "1 64773U 25147U   26144.97787198  .00033580  00000+0  10005-2 0  9995", "line2": "2 64773  53.1581 247.5599 0000890  60.9162 299.1930 15.34401373 50441"}, {"name": "STARLINK-34621", "line1": "1 64774U 25147V   26145.01524911  .00028756  00000+0  97905-3 0  9998", "line2": "2 64774  53.1604 248.4980 0001535  90.0774 270.0402 15.30207269 50369"}, {"name": "STARLINK-34657", "line1": "1 64775U 25147W   26144.80560661  .00016872  00000+0  50924-3 0  9993", "line2": "2 64775  53.1609 248.6146 0001022 100.5561 259.5557 15.34407578 50411"}, {"name": "STARLINK-34637", "line1": "1 64776U 25147X   26145.01363963  .00025150  00000+0  75290-3 0  9996", "line2": "2 64776  53.1588 247.7833 0001366  64.1834 295.9310 15.34404305 50371"}, {"name": "STARLINK-34547", "line1": "1 64777U 25147Y   26144.77825427  .00010151  00000+0  31116-3 0  9991", "line2": "2 64777  53.1573 248.4463 0000957  67.8285 292.2819 15.34398482 50358"}, {"name": "STARLINK-34537", "line1": "1 64778U 25147Z   26144.93885514 -.00013115  00000+0 -43141-3 0  9999", "line2": "2 64778  53.1599 225.7011 0003462  92.2612 267.8785 15.30192905 50778"}, {"name": "STARLINK-34585", "line1": "1 64779U 25147AA  26145.01152919  .00027496  00000+0  82145-3 0  9998", "line2": "2 64779  53.1603 247.7645 0000446 129.0378 231.0664 15.34418226 50397"}, {"name": "STARLINK-34491", "line1": "1 64780U 25147AB  26144.77614954  .00025377  00000+0  75955-3 0  9991", "line2": "2 64780  53.1584 248.4294 0000820  75.4418 284.6676 15.34404924 50410"}, {"name": "STARLINK-34582", "line1": "1 64781U 25147AC  26144.70470120  .00018446  00000+0  55595-3 0  9997", "line2": "2 64781  53.1595 248.6962 0001309  92.1222 267.9930 15.34387748 50331"}, {"name": "STARLINK-34482", "line1": "1 64782U 25147AD  26145.00522281  .00027763  00000+0  82957-3 0  9992", "line2": "2 64782  53.1597 247.7230 0001061 101.9143 258.1979 15.34408653 50488"}, {"name": "STARLINK-34629", "line1": "1 64790U 25150A   26145.15660220  .00001791  00000+0  15781-3 0  9991", "line2": "2 64790  70.0004 301.5457 0002814 270.0332  90.0504 14.98339975 47979"}, {"name": "STARLINK-34697", "line1": "1 64791U 25150B   26145.16060934  .00003316  00000+0  28551-3 0  9993", "line2": "2 64791  70.0004 301.5541 0003117 264.3967  95.6837 14.98335639 47974"}]